{"type": "FeatureCollection", "features": [ {"type": "Feature", "properties": {"norad_id": 35891, "name": "COSMOS 2251 DEB", "group": "cosmos-2251-debris", "lat": 45.94623898964285, "lon": 81.89658399347549, "alt_km": 481.07731619179776, "timestamp": "2025-12-26T08:37:54.976459+00:00", "meta": {"OBJECT_NAME": "COSMOS 2251 DEB", "OBJECT_ID": "1993-036AUE", "EPOCH": "2025-12-24T11:02:21.554880", "MEAN_MOTION": 15.34278656, "ECCENTRICITY": 0.00414162, "INCLINATION": 73.9889, "RA_OF_ASC_NODE": 68.7111, "ARG_OF_PERICENTER": 197.0192, "MEAN_ANOMALY": 162.9627, "EPHEMERIS_TYPE": 0, "CLASSIFICATION_TYPE": "U", "NORAD_CAT_ID": 35891, "ELEMENT_SET_NO": 999, "REV_AT_EPOCH": 67400, "BSTAR": 0.0013301522, "MEAN_MOTION_DOT": 0.00045622, "MEAN_MOTION_DDOT": 0}, "tle": {"line1": "1 35891U 93036AUE 25358.45997170  .00045622  00000+0  13302-2 0  9991", "line2": "2 35891  73.9889  68.7111 0041416 197.0192 162.9627 15.34278656674008"}}, "geometry": {"type": "Point", "coordinates": [81.89658399347549, 45.94623898964285]}}, {"type": "Feature", "properties": {"norad_id": 35895, "name": "COSMOS 2251 DEB", "group": "cosmos-2251-debris", "lat": 0.6948067787075934, "lon": -35.76498071274764, "alt_km": 812.139444851884, "timestamp": "2025-12-26T08:37:54.976469+00:00", "meta": {"OBJECT_NAME": "COSMOS 2251 DEB", "OBJECT_ID": "1993-036AUJ", "EPOCH": "2025-12-22T15:33:07.695936", "MEAN_MOTION": 14.01570651, "ECCENTRICITY": 0.01984376, "INCLINATION": 74.0474, "RA_OF_ASC_NODE": 330.4733, "ARG_OF_PERICENTER": 66.0465, "MEAN_ANOMALY": 296.1309, "EPHEMERIS_TYPE": 0, "CLASSIFICATION_TYPE": "U", "NORAD_CAT_ID": 35895, "ELEMENT_SET_NO": 999, "REV_AT_EPOCH": 59151, "BSTAR": 0.0014393062, "MEAN_MOTION_DOT": 2.565e-05, "MEAN_MOTION_DDOT": 0}, "tle": {"line1": "1 35895U 93036AUJ 25356.64800574  .00002565  00000+0  14393-2 0  9995", "line2": "2 35895  74.0474 330.4733 0198437  66.0465 296.1309 14.01570651591511"}}, "geometry": {"type": "Point", "coordinates": [-35.76498071274764, 0.6948067787075934]}}, {"type": "Feature", "properties": {"norad_id": 35898, "name": "COSMOS 2251 DEB", "group": "cosmos-2251-debris", "lat": 58.94766510886069, "lon": 61.44272426047631, "alt_km": 554.8222446548807, "timestamp": "2025-12-26T08:37:54.976479+00:00", "meta": {"OBJECT_NAME": "COSMOS 2251 DEB", "OBJECT_ID": "1993-036AUM", "EPOCH": "2025-12-23T01:28:13.609632", "MEAN_MOTION": 14.9486843, "ECCENTRICITY": 0.00792798, "INCLINATION": 73.9918, "RA_OF_ASC_NODE": 276.5869, "ARG_OF_PERICENTER": 57.1802, "MEAN_ANOMALY": 315.6135, "EPHEMERIS_TYPE": 0, "CLASSIFICATION_TYPE": "U", "NORAD_CAT_ID": 35898, "ELEMENT_SET_NO": 999, "REV_AT_EPOCH": 66964, "BSTAR": 0.00085758423, "MEAN_MOTION_DOT": 9.925e-05, "MEAN_MOTION_DDOT": 0}, "tle": {"line1": "1 35898U 93036AUM 25357.06126863  .00009925  00000+0  85758-3 0  9998", "line2": "2 35898  73.9918 276.5869 0079279  57.1802 315.6135 14.94868430669644"}}, "geometry": {"type": "Point", "coordinates": [61.44272426047631, 58.94766510886069]}}, {"type": "Feature", "properties": {"norad_id": 35901, "name": "COSMOS 2251 DEB", "group": "cosmos-2251-debris", "lat": 26.935532920471932, "lon": 3.1956261680443165, "alt_km": 537.8737783614288, "timestamp": "2025-12-26T08:37:54.976489+00:00", "meta": {"OBJECT_NAME": "COSMOS 2251 DEB", "OBJECT_ID": "1993-036AUQ", "EPOCH": "2025-12-21T07:33:55.014048", "MEAN_MOTION": 15.07789315, "ECCENTRICITY": 0.0007598, "INCLINATION": 74.0113, "RA_OF_ASC_NODE": 5.2093, "ARG_OF_PERICENTER": 337.8636, "MEAN_ANOMALY": 36.6976, "EPHEMERIS_TYPE": 0, "CLASSIFICATION_TYPE": "U", "NORAD_CAT_ID": 35901, "ELEMENT_SET_NO": 999, "REV_AT_EPOCH": 86256, "BSTAR": 0.0027352, "MEAN_MOTION_DOT": 0.00042089, "MEAN_MOTION_DDOT": 0}, "tle": {"line1": "1 35901U 93036AUQ 25355.31522007  .00042089  00000+0  27352-2 0  9992", "line2": "2 35901  74.0113   5.2093 0007598 337.8636  36.6976 15.07789315862560"}}, "geometry": {"type": "Point", "coordinates": [3.1956261680443165, 26.935532920471932]}}, {"type": "Feature", "properties": {"norad_id": 35902, "name": "COSMOS 2251 DEB", "group": "cosmos-2251-debris", "lat": -37.46701098195847, "lon": -162.85712889398704, "alt_km": 734.4173228023774, "timestamp": "2025-12-26T08:37:54.976499+00:00", "meta": {"OBJECT_NAME": "COSMOS 2251 DEB", "OBJECT_ID": "1993-036AUR", "EPOCH": "2025-12-22T20:41:03.846048", "MEAN_MOTION": 14.26951694, "ECCENTRICITY": 0.0102351, "INCLINATION": 73.9816, "RA_OF_ASC_NODE": 216.2092, "ARG_OF_PERICENTER": 329.0141, "MEAN_ANOMALY": 30.4992, "EPHEMERIS_TYPE": 0, "CLASSIFICATION_TYPE": "U", "NORAD_CAT_ID": 35902, "ELEMENT_SET_NO": 999, "REV_AT_EPOCH": 61274, "BSTAR": 0.0010058, "MEAN_MOTION_DOT": 2.559e-05, "MEAN_MOTION_DDOT": 0}, "tle": {"line1": "1 35902U 93036AUR 25356.86185007  .00002559  00000+0  10058-2 0  9992", "line2": "2 35902  73.9816 216.2092 0102351 329.0141  30.4992 14.26951694612743"}}, "geometry": {"type": "Point", "coordinates": [-162.85712889398704, -37.46701098195847]}}, {"type": "Feature", "properties": {"norad_id": 35905, "name": "COSMOS 2251 DEB", "group": "cosmos-2251-debris", "lat": -26.909443329108388, "lon": 11.520031639227762, "alt_km": 535.6195571409098, "timestamp": "2025-12-26T08:37:54.976509+00:00", "meta": {"OBJECT_NAME": "COSMOS 2251 DEB", "OBJECT_ID": "1993-036AUU", "EPOCH": "2025-12-20T21:58:14.302848", "MEAN_MOTION": 14.99122069, "ECCENTRICITY": 0.00907118, "INCLINATION": 74.0303, "RA_OF_ASC_NODE": 194.2135, "ARG_OF_PERICENTER": 272.3815, "MEAN_ANOMALY": 86.6988, "EPHEMERIS_TYPE": 0, "CLASSIFICATION_TYPE": "U", "NORAD_CAT_ID": 35905, "ELEMENT_SET_NO": 999, "REV_AT_EPOCH": 88705, "BSTAR": 0.00044734031, "MEAN_MOTION_DOT": 5.886e-05, "MEAN_MOTION_DDOT": 0}, "tle": {"line1": "1 35905U 93036AUU 25354.91544332  .00005886  00000+0  44734-3 0  9994", "line2": "2 35905  74.0303 194.2135 0090711 272.3815  86.6988 14.99122069887058"}}, "geometry": {"type": "Point", "coordinates": [11.520031639227762, -26.909443329108388]}}, {"type": "Feature", "properties": {"norad_id": 35959, "name": "COSMOS 2251 DEB", "group": "cosmos-2251-debris", "lat": 36.6034104336341, "lon": -60.59007945967079, "alt_km": 761.9410697999265, "timestamp": "2025-12-26T08:37:54.976519+00:00", "meta": {"OBJECT_NAME": "COSMOS 2251 DEB", "OBJECT_ID": "1993-036AUZ", "EPOCH": "2025-12-24T06:13:49.219680", "MEAN_MOTION": 14.34143688, "ECCENTRICITY": 0.00220445, "INCLINATION": 74.0332, "RA_OF_ASC_NODE": 290.9748, "ARG_OF_PERICENTER": 8.3325, "MEAN_ANOMALY": 351.8188, "EPHEMERIS_TYPE": 0, "CLASSIFICATION_TYPE": "U", "NORAD_CAT_ID": 35959, "ELEMENT_SET_NO": 999, "REV_AT_EPOCH": 85093, "BSTAR": 0.00012200296, "MEAN_MOTION_DOT": 3.16e-06, "MEAN_MOTION_DDOT": 0}, "tle": {"line1": "1 35959U 93036AUZ 25358.25959745  .00000316  00000+0  12200-3 0  9998", "line2": "2 35959  74.0332 290.9748 0022044   8.3325 351.8188 14.34143688850935"}}, "geometry": {"type": "Point", "coordinates": [-60.59007945967079, 36.6034104336341]}}, {"type": "Feature", "properties": {"norad_id": 35961, "name": "COSMOS 2251 DEB", "group": "cosmos-2251-debris", "lat": 0.8549781545791744, "lon": -179.52759782351177, "alt_km": 921.9809975516164, "timestamp": "2025-12-26T08:37:54.976541+00:00", "meta": {"OBJECT_NAME": "COSMOS 2251 DEB", "OBJECT_ID": "1993-036AVB", "EPOCH": "2025-12-23T19:07:42.767328", "MEAN_MOTION": 14.05444821, "ECCENTRICITY": 0.01917264, "INCLINATION": 73.9256, "RA_OF_ASC_NODE": 184.7319, "ARG_OF_PERICENTER": 115.7574, "MEAN_ANOMALY": 246.3488, "EPHEMERIS_TYPE": 0, "CLASSIFICATION_TYPE": "U", "NORAD_CAT_ID": 35961, "ELEMENT_SET_NO": 999, "REV_AT_EPOCH": 62837, "BSTAR": 0.0013269491, "MEAN_MOTION_DOT": 2.518e-05, "MEAN_MOTION_DDOT": 0}, "tle": {"line1": "1 35961U 93036AVB 25357.79702277  .00002518  00000+0  13269-2 0  9996", "line2": "2 35961  73.9256 184.7319 0191726 115.7574 246.3488 14.05444821628371"}}, "geometry": {"type": "Point", "coordinates": [-179.52759782351177, 0.8549781545791744]}}, {"type": "Feature", "properties": {"norad_id": 35979, "name": "COSMOS 2251 DEB", "group": "cosmos-2251-debris", "lat": 44.20084218133746, "lon": -132.06807474321005, "alt_km": 624.5230539976883, "timestamp": "2025-12-26T08:37:54.976552+00:00", "meta": {"OBJECT_NAME": "COSMOS 2251 DEB", "OBJECT_ID": "1993-036AVV", "EPOCH": "2025-12-22T21:28:01.748352", "MEAN_MOTION": 14.74747539, "ECCENTRICITY": 0.0059307, "INCLINATION": 74.008, "RA_OF_ASC_NODE": 218.5159, "ARG_OF_PERICENTER": 348.3492, "MEAN_ANOMALY": 27.9615, "EPHEMERIS_TYPE": 0, "CLASSIFICATION_TYPE": "U", "NORAD_CAT_ID": 35979, "ELEMENT_SET_NO": 999, "REV_AT_EPOCH": 88783, "BSTAR": 0.00076773, "MEAN_MOTION_DOT": 5.251e-05, "MEAN_MOTION_DDOT": 0}, "tle": {"line1": "1 35979U 93036AVV 25356.89446468  .00005251  00000+0  76773-3 0  9999", "line2": "2 35979  74.0080 218.5159 0059307 348.3492  27.9615 14.74747539887837"}}, "geometry": {"type": "Point", "coordinates": [-132.06807474321005, 44.20084218133746]}}, {"type": "Feature", "properties": {"norad_id": 35980, "name": "COSMOS 2251 DEB", "group": "cosmos-2251-debris", "lat": -67.5568234807277, "lon": -39.156390090791206, "alt_km": 667.1276986059529, "timestamp": "2025-12-26T08:37:54.976562+00:00", "meta": {"OBJECT_NAME": "COSMOS 2251 DEB", "OBJECT_ID": "1993-036AVW", "EPOCH": "2025-12-25T13:22:27.353856", "MEAN_MOTION": 14.59476627, "ECCENTRICITY": 0.0053822, "INCLINATION": 73.912, "RA_OF_ASC_NODE": 98.0618, "ARG_OF_PERICENTER": 231.0081, "MEAN_ANOMALY": 128.6285, "EPHEMERIS_TYPE": 0, "CLASSIFICATION_TYPE": "U", "NORAD_CAT_ID": 35980, "ELEMENT_SET_NO": 999, "REV_AT_EPOCH": 61673, "BSTAR": 0.0016517, "MEAN_MOTION_DOT": 7.974e-05, "MEAN_MOTION_DDOT": 0}, "tle": {"line1": "1 35980U 93036AVW 25359.55726104  .00007974  00000+0  16517-2 0  9998", "line2": "2 35980  73.9120  98.0618 0053822 231.0081 128.6285 14.59476627616732"}}, "geometry": {"type": "Point", "coordinates": [-39.156390090791206, -67.5568234807277]}}]}